{
  "type": "FeatureCollection",
  "features": [
    {
      "type": "Feature",
      "properties": {
        "norad_id": 34434,
        "name": "COSMOS 2251 DEB",
        "group": "cosmos-2251-debris",
        "lat": 13.90453706525566,
        "lon": 11.633498739402993,
        "alt_km": 1055.5756727150738,
        "timestamp": "2025-12-14T05:42:18.856962+00:00",
        "meta_object_name": "COSMOS 2251 DEB",
        "meta_object_id": "1993-036SB",
        "meta_epoch": "2025-12-13T13:06:22.929408",
        "meta_mean_motion": 13.8981707,
        "meta_eccentricity": 0.02748273,
        "meta_inclination": 74.0635,
        "meta_ra_of_asc_node": 8.7532,
        "meta_arg_of_pericenter": 145.8895,
        "meta_mean_anomaly": 12.0553,
        "meta_ephemeris_type": 0,
        "meta_classification_type": "U",
        "meta_norad_cat_id": 34434,
        "meta_element_set_no": 999,
        "meta_rev_at_epoch": 83977,
        "meta_bstar": 0.0026999004,
        "meta_mean_motion_dot": 4.477e-05,
        "meta_mean_motion_ddot": 0,
        "tle_line1": "1 34434U 93036SB  25347.54609872  .00004477  00000+0  26999-2 0  9999",
        "tle_line2": "2 34434  74.0635   8.7532 0274827 145.8895  12.0553 13.89817070839774"
      },
      "geometry": {
        "type": "Point",
        "coordinates": [
          11.633498739402993,
          13.90453706525566
        ]
      }
    },
    {
      "type": "Feature",
      "properties": {
        "norad_id": 34446,
        "name": "COSMOS 2251 DEB",
        "group": "cosmos-2251-debris",
        "lat": 15.278413207426782,
        "lon": -130.00954269633874,
        "alt_km": 696.1162809801017,
        "timestamp": "2025-12-14T05:42:18.856973+00:00",
        "meta_object_name": "COSMOS 2251 DEB",
        "meta_object_id": "1993-036SP",
        "meta_epoch": "2025-12-13T05:45:25.485120",
        "meta_mean_motion": 14.49354389,
        "meta_eccentricity": 0.00511338,
        "meta_inclination": 74.0422,
        "meta_ra_of_asc_node": 56.3438,
        "meta_arg_of_pericenter": 194.271,
        "meta_mean_anomaly": 165.7009,
        "meta_ephemeris_type": 0,
        "meta_classification_type": "U",
        "meta_norad_cat_id": 34446,
        "meta_element_set_no": 999,
        "meta_rev_at_epoch": 88701,
        "meta_bstar": 0.00022441589,
        "meta_mean_motion_dot": 8.43e-06,
        "meta_mean_motion_ddot": 0,
        "tle_line1": "1 34446U 93036SP  25347.23987830  .00000843  00000+0  22442-3 0  9994",
        "tle_line2": "2 34446  74.0422  56.3438 0051133 194.2710 165.7009 14.49354389887010"
      },
      "geometry": {
        "type": "Point",
        "coordinates": [
          -130.00954269633874,
          15.278413207426782
        ]
      }
    },
    {
      "type": "Feature",
      "properties": {
        "norad_id": 34449,
        "name": "COSMOS 2251 DEB",
        "group": "cosmos-2251-debris",
        "lat": -16.733970750480868,
        "lon": -107.52479327080033,
        "alt_km": 586.4003985001145,
        "timestamp": "2025-12-14T05:42:18.856983+00:00",
        "meta_object_name": "COSMOS 2251 DEB",
        "meta_object_id": "1993-036SS",
        "meta_epoch": "2025-12-13T16:32:16.812672",
        "meta_mean_motion": 14.94973645,
        "meta_eccentricity": 0.00231028,
        "meta_inclination": 74.0327,
        "meta_ra_of_asc_node": 68.6428,
        "meta_arg_of_pericenter": 110.355,
        "meta_mean_anomaly": 15.2154,
        "meta_ephemeris_type": 0,
        "meta_classification_type": "U",
        "meta_norad_cat_id": 34449,
        "meta_element_set_no": 999,
        "meta_rev_at_epoch": 88707,
        "meta_bstar": 0.0023907791,
        "meta_mean_motion_dot": 0.0002633,
        "meta_mean_motion_ddot": 0,
        "tle_line1": "1 34449U 93036SS  25347.68908348  .00026330  00000+0  23908-2 0  9999",
        "tle_line2": "2 34449  74.0327  68.6428 0023102 110.3550  15.2154 14.94973645887076"
      },
      "geometry": {
        "type": "Point",
        "coordinates": [
          -107.52479327080033,
          -16.733970750480868
        ]
      }
    },
    {
      "type": "Feature",
      "properties": {
        "norad_id": 34451,
        "name": "COSMOS 2251 DEB",
        "group": "cosmos-2251-debris",
        "lat": 7.537685704896375,
        "lon": -97.32215118167413,
        "alt_km": 575.5882093914497,
        "timestamp": "2025-12-14T05:42:18.856993+00:00",
        "meta_object_name": "COSMOS 2251 DEB",
        "meta_object_id": "1993-036SU",
        "meta_epoch": "2025-12-13T16:05:54.766464",
        "meta_mean_motion": 14.9566613,
        "meta_eccentricity": 0.00242923,
        "meta_inclination": 74.0456,
        "meta_ra_of_asc_node": 85.9906,
        "meta_arg_of_pericenter": 104.9645,
        "meta_mean_anomaly": 255.4231,
        "meta_ephemeris_type": 0,
        "meta_classification_type": "U",
        "meta_norad_cat_id": 34451,
        "meta_element_set_no": 999,
        "meta_rev_at_epoch": 88649,
        "meta_bstar": 0.0025571178,
        "meta_mean_motion_dot": 0.00028693,
        "meta_mean_motion_ddot": 0,
        "tle_line1": "1 34451U 93036SU  25347.67077276  .00028693  00000+0  25571-2 0  9990",
        "tle_line2": "2 34451  74.0456  85.9906 0024292 104.9645 255.4231 14.95666130886498"
      },
      "geometry": {
        "type": "Point",
        "coordinates": [
          -97.32215118167413,
          7.537685704896375
        ]
      }
    },
    {
      "type": "Feature",
      "properties": {
        "norad_id": 34452,
        "name": "COSMOS 2251 DEB",
        "group": "cosmos-2251-debris",
        "lat": -10.503553590418932,
        "lon": 176.67888371805813,
        "alt_km": 537.2234967796549,
        "timestamp": "2025-12-14T05:42:18.857003+00:00",
        "meta_object_name": "COSMOS 2251 DEB",
        "meta_object_id": "1993-036SV",
        "meta_epoch": "2025-12-13T07:46:06.341664",
        "meta_mean_motion": 15.11705963,
        "meta_eccentricity": 0.00661417,
        "meta_inclination": 74.0357,
        "meta_ra_of_asc_node": 181.6123,
        "meta_arg_of_pericenter": 257.9504,
        "meta_mean_anomaly": 158.2565,
        "meta_ephemeris_type": 0,
        "meta_classification_type": "U",
        "meta_norad_cat_id": 34452,
        "meta_element_set_no": 999,
        "meta_rev_at_epoch": 90671,
        "meta_bstar": 0.0012410735,
        "meta_mean_motion_dot": 0.00022313,
        "meta_mean_motion_ddot": 0,
        "tle_line1": "1 34452U 93036SV  25347.32368451  .00022313  00000+0  12411-2 0  9993",
        "tle_line2": "2 34452  74.0357 181.6123 0066141 257.9504 158.2565 15.11705963906711"
      },
      "geometry": {
        "type": "Point",
        "coordinates": [
          176.67888371805813,
          -10.503553590418932
        ]
      }
    },
    {
      "type": "Feature",
      "properties": {
        "norad_id": 34453,
        "name": "COSMOS 2251 DEB",
        "group": "cosmos-2251-debris",
        "lat": 19.61261636394131,
        "lon": 101.48111647943227,
        "alt_km": 216.8164099827036,
        "timestamp": "2025-12-14T05:42:18.857014+00:00",
        "meta_object_name": "COSMOS 2251 DEB",
        "meta_object_id": "1993-036SW",
        "meta_epoch": "2025-12-12T08:37:33.208896",
        "meta_mean_motion": 15.89241275,
        "meta_eccentricity": 0.00258649,
        "meta_inclination": 74.0973,
        "meta_ra_of_asc_node": 100.0507,
        "meta_arg_of_pericenter": 335.7744,
        "meta_mean_anomaly": 24.2271,
        "meta_ephemeris_type": 0,
        "meta_classification_type": "U",
        "meta_norad_cat_id": 34453,
        "meta_element_set_no": 999,
        "meta_rev_at_epoch": 88861,
        "meta_bstar": 0.014339777,
        "meta_mean_motion_dot": 0.03551032,
        "meta_mean_motion_ddot": 0.014327016,
        "tle_line1": "1 34453U 93036SW  25346.35941214  .03551032  14327-1  14340-1 0  9999",
        "tle_line2": "2 34453  74.0973 100.0507 0025864 335.7744  24.2271 15.89241275888615"
      },
      "geometry": {
        "type": "Point",
        "coordinates": [
          101.48111647943227,
          19.61261636394131
        ]
      }
    },
    {
      "type": "Feature",
      "properties": {
        "norad_id": 34454,
        "name": "COSMOS 2251 DEB",
        "group": "cosmos-2251-debris",
        "lat": -9.901303549769182,
        "lon": -87.98083100620254,
        "alt_km": 741.4203759591355,
        "timestamp": "2025-12-14T05:42:18.857024+00:00",
        "meta_object_name": "COSMOS 2251 DEB",
        "meta_object_id": "1993-036SX",
        "meta_epoch": "2025-12-13T13:03:55.922400",
        "meta_mean_motion": 14.3881032,
        "meta_eccentricity": 0.00356278,
        "meta_inclination": 74.0588,
        "meta_ra_of_asc_node": 276.1552,
        "meta_arg_of_pericenter": 338.4806,
        "meta_mean_anomaly": 21.4848,
        "meta_ephemeris_type": 0,
        "meta_classification_type": "U",
        "meta_norad_cat_id": 34454,
        "meta_element_set_no": 999,
        "meta_rev_at_epoch": 88079,
        "meta_bstar": 0.00037446841,
        "meta_mean_motion_dot": 1.134e-05,
        "meta_mean_motion_ddot": 0,
        "tle_line1": "1 34454U 93036SX  25347.54439725  .00001134  00000+0  37447-3 0  9997",
        "tle_line2": "2 34454  74.0588 276.1552 0035627 338.4806  21.4848 14.38810320880796"
      },
      "geometry": {
        "type": "Point",
        "coordinates": [
          -87.98083100620254,
          -9.901303549769182
        ]
      }
    }
  ]
}